IRIDIUM 159             
1 43578U 18061K   24189.86970411  .00000083  00000+0  22502-4 0  9998
2 43578  86.3980 353.1345 0001922  89.6886 270.4530 14.34217750311714
IRIDIUM 180             
1 43922U 19002A   24190.56688588  .00000103  00000+0  29738-4 0  9998
2 43922  86.3968 289.7228 0002120  97.7234 262.4203 14.34218148287469
IRIDIUM 176             
1 43923U 19002B   24190.52770121  .00001495  00000+0  23325-3 0  9990
2 43923  86.6098 289.7596 0002152  92.3328 267.8136 14.72243094294984
IRIDIUM 168             
1 43924U 19002C   24189.72332060  .00000111  00000+0  32615-4 0  9994
2 43924  86.3968 290.1327 0002238  93.7143 266.4309 14.34217848287289
IRIDIUM 173             
1 43925U 19002D   24189.71063464  .00000242  00000+0  79256-4 0  9990
2 43925  86.3967 290.0562 0002139  94.0589 266.0851 14.34219187287272
IRIDIUM 169             
1 43926U 19002E   24189.85300796  .00000507  00000+0  15914-3 0  9992
2 43926  86.4239 321.6242 0003445 129.4380 230.7123 14.38627706288247
IRIDIUM 172             
1 43927U 19002F   24190.19267344  .00000180  00000+0  57142-4 0  9990
2 43927  86.3970 289.8606 0002140  93.7129 266.4311 14.34217235287346
IRIDIUM 175             
1 43928U 19002G   24190.18220829  .00001278  00000+0  19880-3 0  9992
2 43928  86.1501 261.8577 0002237 100.7683 259.3786 14.72234427294926
